[{"OBJECT_NAME":"STARLINK-3748","OBJECT_ID":"2022-041G","EPOCH":"2025-07-30T04:43:24.413376","MEAN_MOTION":15.08836236,"ECCENTRICITY":0.0001314,"INCLINATION":53.2192,"RA_OF_ASC_NODE":27.938,"ARG_OF_PERICENTER":88.8667,"MEAN_ANOMALY":271.2476,"EPHEMERIS_TYPE":0,"CLASSIFICATION_TYPE":"U","NORAD_CAT_ID":52267,"ELEMENT_SET_NO":999,"REV_AT_EPOCH":18199,"BSTAR":5.1416e-5,"MEAN_MOTION_DOT":5.3e-6,"MEAN_MOTION_DDOT":0},{"OBJECT_NAME":"STARLINK-3746","OBJECT_ID":"2022-041H","EPOCH":"2025-07-29T18:44:34.443744","MEAN_MOTION":15.08839206,"ECCENTRICITY":0.0001275,"INCLINATION":53.2181,"RA_OF_ASC_NODE":29.7198,"ARG_OF_PERICENTER":90.4205,"MEAN_ANOMALY":269.6934,"EPHEMERIS_TYPE":0,"CLASSIFICATION_TYPE":"U","NORAD_CAT_ID":52268,"ELEMENT_SET_NO":999,"REV_AT_EPOCH":18071,"BSTAR":3.2282e-5,"MEAN_MOTION_DOT":2.26e-6,"MEAN_MOTION_DDOT":0},{"OBJECT_NAME":"STARLINK-3791","OBJECT_ID":"2022-041J","EPOCH":"2025-07-30T04:38:06.041472","MEAN_MOTION":15.0883654,"ECCENTRICITY":0.0001209,"INCLINATION":53.2176,"RA_OF_ASC_NODE":27.9468,"ARG_OF_PERICENTER":88.5042,"MEAN_ANOMALY":271.6089,"EPHEMERIS_TYPE":0,"CLASSIFICATION_TYPE":"U","NORAD_CAT_ID":52269,"ELEMENT_SET_NO":999,"REV_AT_EPOCH":18199,"BSTAR":1.9314e-5,"MEAN_MOTION_DOT":2.0e-7,"MEAN_MOTION_DDOT":0},{"OBJECT_NAME":"STARLINK-3804","OBJECT_ID":"2022-041K","EPOCH":"2025-07-29T18:55:11.686080","MEAN_MOTION":15.08837665,"ECCENTRICITY":0.0001231,"INCLINATION":53.217,"RA_OF_ASC_NODE":29.7917,"ARG_OF_PERICENTER":91.4963,"MEAN_ANOMALY":268.617,"EPHEMERIS_TYPE":0,"CLASSIFICATION_TYPE":"U","NORAD_CAT_ID":52270,"ELEMENT_SET_NO":999,"REV_AT_EPOCH":18071,"BSTAR":-1.0289e-5,"MEAN_MOTION_DOT":-4.52e-6,"MEAN_MOTION_DDOT":0},{"OBJECT_NAME":"STARLINK-3788","OBJECT_ID":"2022-041L","EPOCH":"2025-07-30T10:54:20.907360","MEAN_MOTION":15.0883071,"ECCENTRICITY":0.0001302,"INCLINATION":53.2186,"RA_OF_ASC_NODE":26.7751,"ARG_OF_PERICENTER":95.6152,"MEAN_ANOMALY":264.4989,"EPHEMERIS_TYPE":0,"CLASSIFICATION_TYPE":"U","NORAD_CAT_ID":52271,"ELEMENT_SET_NO":999,"REV_AT_EPOCH":18203,"BSTAR":4.158e-5,"MEAN_MOTION_DOT":3.74e-6,"MEAN_MOTION_DDOT":0},{"OBJECT_NAME":"STARLINK-3781","OBJECT_ID":"2022-041M","EPOCH":"2025-07-30T04:23:35.364480","MEAN_MOTION":15.08839601,"ECCENTRICITY":0.00013,"INCLINATION":53.218,"RA_OF_ASC_NODE":28.0302,"ARG_OF_PERICENTER":75.2219,"MEAN_ANOMALY":284.8917,"EPHEMERIS_TYPE":0,"CLASSIFICATION_TYPE":"U","NORAD_CAT_ID":52272,"ELEMENT_SET_NO":999,"REV_AT_EPOCH":18200,"BSTAR":5.8334e-5,"MEAN_MOTION_DOT":6.41e-6,"MEAN_MOTION_DDOT":0},{"OBJECT_NAME":"STARLINK-3782","OBJECT_ID":"2022-041N","EPOCH":"2025-07-29T18:10:15.873888","MEAN_MOTION":15.08839634,"ECCENTRICITY":0.0001253,"INCLINATION":53.2193,"RA_OF_ASC_NODE":20.2884,"ARG_OF_PERICENTER":92.2542,"MEAN_ANOMALY":267.8593,"EPHEMERIS_TYPE":0,"CLASSIFICATION_TYPE":"U","NORAD_CAT_ID":52273,"ELEMENT_SET_NO":999,"REV_AT_EPOCH":18084,"BSTAR":4.8131e-5,"MEAN_MOTION_DOT":4.78e-6,"MEAN_MOTION_DDOT":0},{"OBJECT_NAME":"STARLINK-3790","OBJECT_ID":"2022-041P","EPOCH":"2025-07-29T18:39:17.392896","MEAN_MOTION":15.08841266,"ECCENTRICITY":0.0001318,"INCLINATION":53.2187,"RA_OF_ASC_NODE":29.8132,"ARG_OF_PERICENTER":91.3755,"MEAN_ANOMALY":268.7388,"EPHEMERIS_TYPE":0,"CLASSIFICATION_TYPE":"U","NORAD_CAT_ID":52274,"ELEMENT_SET_NO":999,"REV_AT_EPOCH":18071,"BSTAR":4.6234e-5,"MEAN_MOTION_DOT":4.48e-6,"MEAN_MOTION_DDOT":0},{"OBJECT_NAME":"STARLINK-3784","OBJECT_ID":"2022-041Q","EPOCH":"2025-07-30T04:22:12.219168","MEAN_MOTION":15.08839873,"ECCENTRICITY":0.0001088,"INCLINATION":53.2183,"RA_OF_ASC_NODE":27.9975,"ARG_OF_PERICENTER":90.461,"MEAN_ANOMALY":269.6507,"EPHEMERIS_TYPE":0,"CLASSIFICATION_TYPE":"U","NORAD_CAT_ID":52275,"ELEMENT_SET_NO":999,"REV_AT_EPOCH":18198,"BSTAR":7.6068e-5,"MEAN_MOTION_DOT":9.23e-6,"MEAN_MOTION_DDOT":0},{"OBJECT_NAME":"STARLINK-3778","OBJECT_ID":"2022-041R","EPOCH":"2025-07-29T18:33:59.452992","MEAN_MOTION":15.08840626,"ECCENTRICITY":0.0001266,"INCLINATION":53.2186,"RA_OF_ASC_NODE":29.8311,"ARG_OF_PERICENTER":92.1866,"MEAN_ANOMALY":267.9271,"EPHEMERIS_TYPE":0,"CLASSIFICATION_TYPE":"U","NORAD_CAT_ID":52276,"ELEMENT_SET_NO":999,"REV_AT_EPOCH":18071,"BSTAR":6.1471e-5,"MEAN_MOTION_DOT":6.91e-6,"MEAN_MOTION_DDOT":0},{"OBJECT_NAME":"STARLINK-3780","OBJECT_ID":"2022-041T","EPOCH":"2025-07-29T18:28:41.551968","MEAN_MOTION":15.08840601,"ECCENTRICITY":0.0001306,"INCLINATION":53.2189,"RA_OF_ASC_NODE":29.8454,"ARG_OF_PERICENTER":88.9213,"MEAN_ANOMALY":271.1929,"EPHEMERIS_TYPE":0,"CLASSIFICATION_TYPE":"U","NORAD_CAT_ID":52278,"ELEMENT_SET_NO":999,"REV_AT_EPOCH":18071,"BSTAR":9.4614e-5,"MEAN_MOTION_DOT":1.218e-5,"MEAN_MOTION_DDOT":0},{"OBJECT_NAME":"STARLINK-3764","OBJECT_ID":"2022-041V","EPOCH":"2025-07-30T05:20:29.648832","MEAN_MOTION":15.08841486,"ECCENTRICITY":0.0001232,"INCLINATION":53.2181,"RA_OF_ASC_NODE":27.8125,"ARG_OF_PERICENTER":85.7479,"MEAN_ANOMALY":274.3654,"EPHEMERIS_TYPE":0,"CLASSIFICATION_TYPE":"U","NORAD_CAT_ID":52280,"ELEMENT_SET_NO":999,"REV_AT_EPOCH":18200,"BSTAR":2.2573e-5,"MEAN_MOTION_DOT":7.1e-7,"MEAN_MOTION_DDOT":0},{"OBJECT_NAME":"STARLINK-3779","OBJECT_ID":"2022-041W","EPOCH":"2025-07-29T18:35:21.968448","MEAN_MOTION":15.0884024,"ECCENTRICITY":0.0001334,"INCLINATION":53.2189,"RA_OF_ASC_NODE":29.8273,"ARG_OF_PERICENTER":87.0548,"MEAN_ANOMALY":273.0597,"EPHEMERIS_TYPE":0,"CLASSIFICATION_TYPE":"U","NORAD_CAT_ID":52281,"ELEMENT_SET_NO":999,"REV_AT_EPOCH":18193,"BSTAR":5.2483e-5,"MEAN_MOTION_DOT":5.47e-6,"MEAN_MOTION_DDOT":0},{"OBJECT_NAME":"STARLINK-3783","OBJECT_ID":"2022-041X","EPOCH":"2025-07-30T11:32:45.782880","MEAN_MOTION":15.08836804,"ECCENTRICITY":0.0001272,"INCLINATION":53.219,"RA_OF_ASC_NODE":16.6545,"ARG_OF_PERICENTER":88.8659,"MEAN_ANOMALY":271.2479,"EPHEMERIS_TYPE":0,"CLASSIFICATION_TYPE":"U","NORAD_CAT_ID":52282,"ELEMENT_SET_NO":999,"REV_AT_EPOCH":18217,"BSTAR":3.4946e-5,"MEAN_MOTION_DOT":2.68e-6,"MEAN_MOTION_DDOT":0},{"OBJECT_NAME":"STARLINK-3789","OBJECT_ID":"2022-041Y","EPOCH":"2025-07-30T11:52:38.212608","MEAN_MOTION":15.08837053,"ECCENTRICITY":0.0001414,"INCLINATION":53.2187,"RA_OF_ASC_NODE":26.591,"ARG_OF_PERICENTER":88.8897,"MEAN_ANOMALY":271.2258,"EPHEMERIS_TYPE":0,"CLASSIFICATION_TYPE":"U","NORAD_CAT_ID":52283,"ELEMENT_SET_NO":999,"REV_AT_EPOCH":18204,"BSTAR":2.9422e-5,"MEAN_MOTION_DOT":1.8e-6,"MEAN_MOTION_DDOT":0},{"OBJECT_NAME":"STARLINK-3561","OBJECT_ID":"2022-041Z","EPOCH":"2025-07-29T16:17:32.206272","MEAN_MOTION":15.0883968,"ECCENTRICITY":0.0001287,"INCLINATION":53.2194,"RA_OF_ASC_NODE":20.2555,"ARG_OF_PERICENTER":85.1043,"MEAN_ANOMALY":275.0096,"EPHEMERIS_TYPE":0,"CLASSIFICATION_TYPE":"U","NORAD_CAT_ID":52284,"ELEMENT_SET_NO":999,"REV_AT_EPOCH":18083,"BSTAR":4.2151e-5,"MEAN_MOTION_DOT":3.83e-6,"MEAN_MOTION_DDOT":0},{"OBJECT_NAME":"STARLINK-3775","OBJECT_ID":"2022-041AA","EPOCH":"2025-07-29T17:47:34.381824","MEAN_MOTION":15.85497695,"ECCENTRICITY":0.0001556,"INCLINATION":53.2213,"RA_OF_ASC_NODE":21.0639,"ARG_OF_PERICENTER":181.658,"MEAN_ANOMALY":271.5174,"EPHEMERIS_TYPE":0,"CLASSIFICATION_TYPE":"U","NORAD_CAT_ID":52285,"ELEMENT_SET_NO":999,"REV_AT_EPOCH":18206,"BSTAR":0.0054076,"MEAN_MOTION_DOT":0.0150379,"MEAN_MOTION_DDOT":0}]
