STARLINK-3748           
1 52267U 22041G   25211.19681034  .00000530  00000+0  51416-4 0  9992
2 52267  53.2192  27.9380 0001314  88.8667 271.2476 15.08836236181996
STARLINK-3746           
1 52268U 22041H   25210.78095421  .00000226  00000+0  32282-4 0  9998
2 52268  53.2181  29.7198 0001275  90.4205 269.6934 15.08839206180714
STARLINK-3791           
1 52269U 22041J   25211.19312548  .00000020  00000+0  19314-4 0  9990
2 52269  53.2176  27.9468 0001209  88.5042 271.6089 15.08836540181996
STARLINK-3804           
1 52270U 22041K   25210.78832970 -.00000452  00000+0 -10289-4 0  9995
2 52270  53.2170  29.7917 0001231  91.4963 268.6170 15.08837665180716
STARLINK-3788           
1 52271U 22041L   25211.45440865  .00000374  00000+0  41580-4 0  9998
2 52271  53.2186  26.7751 0001302  95.6152 264.4989 15.08830710182035
STARLINK-3781           
1 52272U 22041M   25211.18304820  .00000641  00000+0  58334-4 0  9991
2 52272  53.2180  28.0302 0001300  75.2219 284.8917 15.08839601182005
STARLINK-3782           
1 52273U 22041N   25210.75712817  .00000478  00000+0  48131-4 0  9995
2 52273  53.2193  20.2884 0001253  92.2542 267.8593 15.08839634180841
STARLINK-3790           
1 52274U 22041P   25210.77728464  .00000448  00000+0  46234-4 0  9992
2 52274  53.2187  29.8132 0001318  91.3755 268.7388 15.08841266180716
STARLINK-3784           
1 52275U 22041Q   25211.18208587  .00000923  00000+0  76068-4 0  9994
2 52275  53.2183  27.9975 0001088  90.4610 269.6507 15.08839873181985
STARLINK-3778           
1 52276U 22041R   25210.77360478  .00000691  00000+0  61471-4 0  9991
2 52276  53.2186  29.8311 0001266  92.1866 267.9271 15.08840626180711
STARLINK-3780           
1 52278U 22041T   25210.76992537  .00001218  00000+0  94614-4 0  9990
2 52278  53.2189  29.8454 0001306  88.9213 271.1929 15.08840601180718
STARLINK-3764           
1 52280U 22041V   25211.22256538  .00000071  00000+0  22573-4 0  9990
2 52280  53.2181  27.8125 0001232  85.7479 274.3654 15.08841486182009
STARLINK-3779           
1 52281U 22041W   25210.77455982  .00000547  00000+0  52483-4 0  9995
2 52281  53.2189  29.8273 0001334  87.0548 273.0597 15.08840240181939
STARLINK-3783           
1 52282U 22041X   25211.48108545  .00000268  00000+0  34946-4 0  9999
2 52282  53.2190  16.6545 0001272  88.8659 271.2479 15.08836804182178
STARLINK-3789           
1 52283U 22041Y   25211.49488672  .00000180  00000+0  29422-4 0  9999
2 52283  53.2187  26.5910 0001414  88.8897 271.2258 15.08837053182041
STARLINK-3561           
1 52284U 22041Z   25210.67884498  .00000383  00000+0  42151-4 0  9994
2 52284  53.2194  20.2555 0001287  85.1043 275.0096 15.08839680180832
STARLINK-3775           
1 52285U 22041AA  25210.74137016  .01503790  00000+0  54076-2 0  9998
2 52285  53.2213  21.0639 0001556 181.6580 271.5174 15.85497695182060
